NORAD_CAT_ID,OBJECT_NAME,OBJECT_TYPE,EPOCH,MEAN_MOTION,ECCENTRICITY,INCLINATION,RA_OF_ASC_NODE,ARG_OF_PERICENTER,MEAN_ANOMALY,BSTAR,MEAN_MOTION_DOT,MEAN_MOTION_DDOT,TLE_LINE0,TLE_LINE1,TLE_LINE2,SEMIMAJOR_AXIS,PERIOD,APOGEE,PERIGEE,DECAYED
53527.0,STARLINK-4511,PAYLOAD,2023-05-23 19:37:24,15.08849743,9.36e-05,53.2162,336.9946,83.4538,276.6561,0.00051283,7.885e-05,0.0,0 STARLINK-4511,1 53527U 22101A   23143.81764573  .00007885  00000-0  51283-3 0  9992,2 53527  53.2162 336.9946 0000936  83.4538 276.6561 15.08849743 42044,6917.851,95.437,540.363,539.068,0.0
53527.0,STARLINK-4511,PAYLOAD,2023-05-23 21:12:47,15.08850651,9.2e-05,53.2163,336.6974,82.3633,277.7463,0.00060149,9.301e-05,0.0,0 STARLINK-4511,1 53527U 22101A   23143.88388571  .00009301  00000-0  60149-3 0  9995,2 53527  53.2163 336.6974 0000920  82.3633 277.7463 15.08850651 42054,6917.848,95.437,540.349,539.076,0.0
53527.0,STARLINK-4511,PAYLOAD,2023-05-24 01:58:57,15.08839658,0.0001069,53.2162,335.8053,80.2028,279.9085,0.00021645,3.159e-05,0.0,0 STARLINK-4511,1 53527U 22101A   23144.08260805  .00003159  00000-0  21645-3 0  9990,2 53527  53.2162 335.8053 0001069  80.2028 279.9085 15.08839658 42083,6917.881,95.438,540.486,539.007,0.0
53527.0,STARLINK-4511,PAYLOAD,2023-05-24 14:42:02,15.08847595,9.59e-05,53.2163,333.4264,89.4096,270.7006,0.00070421,0.0001094,0.0,0 STARLINK-4511,1 53527U 22101A   23144.61252775  .00010940  00000-0  70421-3 0  9998,2 53527  53.2163 333.4264 0000959  89.4096 270.7006 15.08847595 42165,6917.857,95.437,540.386,539.059,0.0
53527.0,STARLINK-4511,PAYLOAD,2023-05-25 17:43:35,15.08846429,0.0001003,53.2162,328.3714,84.5913,275.5193,0.00026206,3.886e-05,0.0,0 STARLINK-4511,1 53527U 22101A   23145.73860547  .00003886  00000-0  26206-3 0  9997,2 53527  53.2162 328.3714 0001003  84.5913 275.5193 15.08846429 42336,6917.861,95.437,540.42,539.032,0.0
53527.0,STARLINK-4511,PAYLOAD,2023-05-25 20:54:21,15.08849336,0.0001031,53.2163,327.7766,89.2135,270.8976,0.00031667,4.757e-05,0.0,0 STARLINK-4511,1 53527U 22101A   23145.87108401  .00004757  00000-0  31667-3 0  9991,2 53527  53.2163 327.7766 0001031  89.2135 270.8976 15.08849336 42355,6917.852,95.437,540.43,539.004,0.0
53527.0,STARLINK-4511,PAYLOAD,2023-05-26 12:48:13,15.08834456,0.0001274,53.2175,324.8026,91.9353,268.1785,-9.2732e-05,-1.763e-05,0.0,0 STARLINK-4511,1 53527U 22101A   23146.53348829 -.00001763  00000-0 -92732-4 0  9992,2 53527  53.2175 324.8026 0001274  91.9353 268.1785 15.08834456 42452,6917.897,95.438,540.644,538.881,0.0
53527.0,STARLINK-4511,PAYLOAD,2023-05-26 17:34:22,15.08838375,0.0001113,53.2167,323.9109,89.0166,271.0954,3.8418e-05,3.24e-06,0.0,0 STARLINK-4511,1 53527U 22101A   23146.73220935  .00000324  00000-0  38418-4 0  9992,2 53527  53.2167 323.9109 0001113  89.0166 271.0954 15.08838375 42485,6917.885,95.438,540.52,538.98,0.0
53527.0,STARLINK-4511,PAYLOAD,2023-05-26 20:45:09,15.08839687,0.0001098,53.2164,323.3161,94.9681,265.1437,4.1683e-05,3.76e-06,0.0,0 STARLINK-4511,1 53527U 22101A   23146.86468821  .00000376  00000-0  41683-4 0  9999,2 53527  53.2164 323.3161 0001098  94.9681 265.1437 15.08839687 42503,6917.881,95.438,540.506,538.987,0.0
53527.0,STARLINK-4511,PAYLOAD,2023-05-27 20:35:56,15.08843126,0.0001049,53.217,318.8544,85.9824,274.1288,8.7295e-05,1.102e-05,0.0,0 STARLINK-4511,1 53527U 22101A   23147.85828935  .00001102  00000-0  87295-4 0  9992,2 53527  53.2170 318.8544 0001049  85.9824 274.1288 15.08843126 42652,6917.871,95.437,540.462,539.01,0.0
53527.0,STARLINK-4511,PAYLOAD,2023-05-28 04:32:51,15.08841747,9.93e-05,53.217,317.3684,88.3764,271.7341,0.0001083,1.436e-05,0.0,0 STARLINK-4511,1 53527U 22101A   23148.18948990  .00001436  00000-0  10830-3 0  9993,2 53527  53.2170 317.3684 0000993  88.3764 271.7341 15.08841747 42704,6917.875,95.437,540.427,539.053,0.0
53527.0,STARLINK-4511,PAYLOAD,2023-05-28 20:26:42,15.088517,9.8e-05,53.2158,314.395,86.6368,273.4736,0.00024932,3.684e-05,0.0,0 STARLINK-4511,1 53527U 22101A   23148.85188411  .00003684  00000-0  24932-3 0  9996,2 53527  53.2158 314.3950 0000980  86.6368 273.4736 15.08851700 42808,6917.845,95.437,540.388,539.032,0.0
53527.0,STARLINK-4511,PAYLOAD,2023-05-29 10:45:11,15.08839884,0.0001058,53.2154,311.719,90.916,269.1954,9.1736e-05,1.172e-05,0.0,0 STARLINK-4511,1 53527U 22101A   23149.44805007  .00001172  00000-0  91736-4 0  9996,2 53527  53.2154 311.7190 0001058  90.9160 269.1954 15.08839884 42898,6917.881,95.438,540.478,539.014,0.0
53527.0,STARLINK-4511,PAYLOAD,2023-05-29 17:06:44,15.08840513,9.43e-05,53.2155,310.5291,96.5308,263.5791,9.618e-05,1.243e-05,0.0,0 STARLINK-4511,1 53527U 22101A   23149.71300973  .00001243  00000-0  96180-4 0  9995,2 53527  53.2155 310.5291 0000943  96.5308 263.5791 15.08840513 42939,6917.879,95.438,540.396,539.091,0.0
53527.0,STARLINK-4511,PAYLOAD,2023-05-30 10:35:58,15.08840579,9.2e-05,53.2153,307.2583,93.7501,266.3596,5.3523e-05,5.64e-06,0.0,0 STARLINK-4511,1 53527U 22101A   23150.44165028  .00000564  00000-0  53523-4 0  9996,2 53527  53.2153 307.2583 0000920  93.7501 266.3596 15.08840579 43042,6917.879,95.438,540.38,539.107,0.0
53527.0,STARLINK-4511,PAYLOAD,2023-05-30 15:22:07,15.0884191,9.39e-05,53.2154,306.3654,97.5012,262.6087,7.1166e-05,8.45e-06,0.0,0 STARLINK-4511,1 53527U 22101A   23150.64036959  .00000845  00000-0  71166-4 0  9993,2 53527  53.2154 306.3654 0000939  97.5012 262.6087 15.08841910 43078,6917.875,95.437,540.389,539.09,0.0
53527.0,STARLINK-4511,PAYLOAD,2023-05-30 20:08:17,15.08845253,9.7e-05,53.2155,305.4729,100.4006,259.7095,6.3397e-05,7.21e-06,0.0,0 STARLINK-4511,1 53527U 22101A   23150.83908762  .00000721  00000-0  63397-4 0  9994,2 53527  53.2155 305.4729 0000970 100.4006 259.7095 15.08845253 43108,6917.864,95.437,540.4,539.058,0.0
53527.0,STARLINK-4511,PAYLOAD,2023-05-31 10:26:45,15.08836879,9.34e-05,53.2152,302.7965,101.8762,258.2335,0.00010146,1.327e-05,0.0,0 STARLINK-4511,1 53527U 22101A   23151.43525269  .00001327  00000-0  10146-3 0  9994,2 53527  53.2152 302.7965 0000934 101.8762 258.2335 15.08836879 43195,6917.89,95.438,540.401,539.109,0.0
53527.0,STARLINK-4511,PAYLOAD,2023-05-31 13:37:31,15.08839835,9.33e-05,53.2152,302.2019,100.5965,259.5132,0.00013523,1.865e-05,0.0,0 STARLINK-4511,1 53527U 22101A   23151.56773135  .00001865  00000-0  13523-3 0  9994,2 53527  53.2152 302.2019 0000933 100.5965 259.5132 15.08839835 43217,6917.881,95.438,540.391,539.1,0.0
53527.0,STARLINK-4511,PAYLOAD,2023-05-31 16:48:18,15.08840484,8.34e-05,53.2151,301.609,85.2476,274.8612,0.00023159,3.4e-05,0.0,0 STARLINK-4511,1 53527U 22101A   23151.70021186  .00003400  00000-0  23159-3 0  9995,2 53527  53.2151 301.6090 0000834  85.2476 274.8612 15.08840484 43231,6917.879,95.438,540.321,539.167,0.0
53527.0,STARLINK-4511,PAYLOAD,2023-06-01 10:17:33,15.08834744,9.47e-05,53.2154,298.3361,81.9579,278.1521,0.00020099,2.912e-05,0.0,0 STARLINK-4511,1 53527U 22101A   23152.42885486  .00002912  00000-0  20099-3 0  9993,2 53527  53.2154 298.3361 0000947  81.9579 278.1521 15.08834744 43349,6917.896,95.438,540.417,539.106,0.0
53527.0,STARLINK-4511,PAYLOAD,2023-06-02 02:11:23,15.08845582,4.24e-05,53.2156,295.3628,55.2904,304.8128,0.00011288,1.51e-05,0.0,0 STARLINK-4511,1 53527U 22101A   23153.09124708  .00001510  00000-0  11288-3 0  9993,2 53527  53.2156 295.3628 0000424  55.2904 304.8128 15.08845582 43443,6917.863,95.437,540.022,539.435,0.0
53527.0,STARLINK-4511,PAYLOAD,2023-06-02 10:08:20,15.08836238,0.0001066,53.2158,293.8804,99.2653,260.846,-8.8135e-06,-4.28e-06,0.0,0 STARLINK-4511,1 53527U 22101A   23153.42245388 -.00000428  00000-0 -88135-5 0  9994,2 53527  53.2158 293.8804 0001066  99.2653 260.8460 15.08836238 43499,6917.892,95.438,540.494,539.019,0.0
53527.0,STARLINK-4511,PAYLOAD,2023-06-02 13:19:06,15.08833965,7.99e-05,53.2156,293.2856,98.8739,261.2344,2.4433e-05,1.01e-06,0.0,0 STARLINK-4511,1 53527U 22101A   23153.55493858  .00000101  00000-0  24433-4 0  9991,2 53527  53.2156 293.2856 0000799  98.8739 261.2344 15.08833965 43513,6917.899,95.438,540.317,539.211,0.0
53527.0,STARLINK-4511,PAYLOAD,2023-06-02 16:29:52,15.08836811,8.03e-05,53.216,292.6901,91.1136,268.9948,4.9081e-05,4.93e-06,0.0,0 STARLINK-4511,1 53527U 22101A   23153.68741653  .00000493  00000-0  49081-4 0  9994,2 53527  53.2160 292.6901 0000803  91.1136 268.9948 15.08836811 43534,6917.89,95.438,540.311,539.2,0.0
53527.0,STARLINK-4511,PAYLOAD,2023-06-03 13:09:54,15.08833845,9.34e-05,53.2158,288.8238,112.1878,247.9213,-5.2882e-06,-3.72e-06,0.0,0 STARLINK-4511,1 53527U 22101A   23154.54854191 -.00000372  00000-0 -52882-5 0  9994,2 53527  53.2158 288.8238 0000934 112.1878 247.9213 15.08833845 43663,6917.899,95.438,540.41,539.118,0.0
53527.0,STARLINK-4511,PAYLOAD,2023-06-03 16:20:40,15.08836495,8.9e-05,53.2159,288.2287,109.4155,250.6933,2.2341e-05,6.8e-07,0.0,0 STARLINK-4511,1 53527U 22101A   23154.68101983  .00000068  00000-0  22341-4 0  9999,2 53527  53.2159 288.2287 0000890 109.4155 250.6933 15.08836495 43686,6917.891,95.438,540.372,539.14,0.0
53527.0,STARLINK-4511,PAYLOAD,2023-06-03 19:31:26,15.08841391,8.78e-05,53.2159,287.6336,106.0766,254.0323,7.0748e-05,8.38e-06,0.0,0 STARLINK-4511,1 53527U 22101A   23154.81349574  .00000838  00000-0  70748-4 0  9993,2 53527  53.2159 287.6336 0000878 106.0766 254.0323 15.08841391 43706,6917.876,95.437,540.349,539.134,0.0
53527.0,STARLINK-4511,PAYLOAD,2023-06-04 14:36:03,15.08842272,8.47e-05,53.2159,284.0645,102.8566,257.252,0.00011253,1.504e-05,0.0,0 STARLINK-4511,1 53527U 22101A   23155.60837539  .00001504  00000-0  11253-3 0  9990,2 53527  53.2159 284.0645 0000847 102.8566 257.2520 15.08842272 43824,6917.873,95.437,540.324,539.153,0.0
53527.0,STARLINK-4511,PAYLOAD,2023-06-04 17:46:49,15.08848007,8.49e-05,53.216,283.4695,102.6395,257.4692,0.00015784,2.226e-05,0.0,0 STARLINK-4511,1 53527U 22101A   23155.74085055  .00002226  00000-0  15784-3 0  9998,2 53527  53.2160 283.4695 0000849 102.6395 257.4692 15.08848007 43840,6917.856,95.437,540.308,539.134,0.0
